{
  "type": "FeatureCollection",
  "features": [
    {
      "type": "Feature",
      "properties": {
        "norad_id": 29780,
        "name": "FENGYUN 1C DEB",
        "group": "fengyun-1c-debris",
        "lat": 66.96048225938902,
        "lon": 102.35824280115799,
        "alt_km": 793.2696866008473,
        "timestamp": "2025-12-05T04:52:15.564105+00:00",
        "meta_object_name": "FENGYUN 1C DEB",
        "meta_object_id": "1999-025BW",
        "meta_epoch": "2025-12-04T06:22:48.678816",
        "meta_mean_motion": 14.20947544,
        "meta_eccentricity": 0.003988,
        "meta_inclination": 99.2772,
        "meta_ra_of_asc_node": 258.7727,
        "meta_arg_of_pericenter": 153.1328,
        "meta_mean_anomaly": 207.1924,
        "meta_ephemeris_type": 0,
        "meta_classification_type": "U",
        "meta_norad_cat_id": 29780,
        "meta_element_set_no": 999,
        "meta_rev_at_epoch": 96958,
        "meta_bstar": 0.0036854,
        "meta_mean_motion_dot": 8.006e-05,
        "meta_mean_motion_ddot": 0,
        "tle_line1": "1 29780U 99025BW  25338.26584119  .00008006  00000+0  36854-2 0  9999",
        "tle_line2": "2 29780  99.2772 258.7727 0039880 153.1328 207.1924 14.20947544969585"
      },
      "geometry": {
        "type": "Point",
        "coordinates": [
          102.35824280115799,
          66.96048225938902
        ]
      }
    },
    {
      "type": "Feature",
      "properties": {
        "norad_id": 29781,
        "name": "FENGYUN 1C DEB",
        "group": "fengyun-1c-debris",
        "lat": 49.65596107846121,
        "lon": 164.0949060156139,
        "alt_km": 848.830946453998,
        "timestamp": "2025-12-05T04:52:15.564115+00:00",
        "meta_object_name": "FENGYUN 1C DEB",
        "meta_object_id": "1999-025BX",
        "meta_epoch": "2025-12-04T13:28:04.649088",
        "meta_mean_motion": 14.05202202,
        "meta_eccentricity": 0.0071594,
        "meta_inclination": 98.8102,
        "meta_ra_of_asc_node": 332.9509,
        "meta_arg_of_pericenter": 196.0504,
        "meta_mean_anomaly": 289.2927,
        "meta_ephemeris_type": 0,
        "meta_classification_type": "U",
        "meta_norad_cat_id": 29781,
        "meta_element_set_no": 999,
        "meta_rev_at_epoch": 96528,
        "meta_bstar": 0.00089727,
        "meta_mean_motion_dot": 1.441e-05,
        "meta_mean_motion_ddot": 0,
        "tle_line1": "1 29781U 99025BX  25338.56116492  .00001441  00000+0  89727-3 0  9992",
        "tle_line2": "2 29781  98.8102 332.9509 0071594 196.0504 289.2927 14.05202202965286"
      },
      "geometry": {
        "type": "Point",
        "coordinates": [
          164.0949060156139,
          49.65596107846121
        ]
      }
    },
    {
      "type": "Feature",
      "properties": {
        "norad_id": 29782,
        "name": "FENGYUN 1C DEB",
        "group": "fengyun-1c-debris",
        "lat": -6.163381838259901,
        "lon": 33.684834569903586,
        "alt_km": 883.1150680386027,
        "timestamp": "2025-12-05T04:52:15.564124+00:00",
        "meta_object_name": "FENGYUN 1C DEB",
        "meta_object_id": "1999-025BY",
        "meta_epoch": "2025-12-04T15:50:36.368160",
        "meta_mean_motion": 14.11601317,
        "meta_eccentricity": 0.0055086,
        "meta_inclination": 99.1009,
        "meta_ra_of_asc_node": 32.1427,
        "meta_arg_of_pericenter": 225.2176,
        "meta_mean_anomaly": 251.2355,
        "meta_ephemeris_type": 0,
        "meta_classification_type": "U",
        "meta_norad_cat_id": 29782,
        "meta_element_set_no": 999,
        "meta_rev_at_epoch": 96557,
        "meta_bstar": 0.0027931,
        "meta_mean_motion_dot": 5.105e-05,
        "meta_mean_motion_ddot": 0,
        "tle_line1": "1 29782U 99025BY  25338.66014315  .00005105  00000+0  27931-2 0  9994",
        "tle_line2": "2 29782  99.1009  32.1427 0055086 225.2176 251.2355 14.11601317965576"
      },
      "geometry": {
        "type": "Point",
        "coordinates": [
          33.684834569903586,
          -6.163381838259901
        ]
      }
    },
    {
      "type": "Feature",
      "properties": {
        "norad_id": 29784,
        "name": "FENGYUN 1C DEB",
        "group": "fengyun-1c-debris",
        "lat": -6.400395000124537,
        "lon": -101.20210027175396,
        "alt_km": 757.972711112564,
        "timestamp": "2025-12-05T04:52:15.564134+00:00",
        "meta_object_name": "FENGYUN 1C DEB",
        "meta_object_id": "1999-025CA",
        "meta_epoch": "2025-12-04T14:21:44.254368",
        "meta_mean_motion": 14.30544949,
        "meta_eccentricity": 0.005987,
        "meta_inclination": 98.9448,
        "meta_ra_of_asc_node": 257.1641,
        "meta_arg_of_pericenter": 321.3417,
        "meta_mean_anomaly": 160.3684,
        "meta_ephemeris_type": 0,
        "meta_classification_type": "U",
        "meta_norad_cat_id": 29784,
        "meta_element_set_no": 999,
        "meta_rev_at_epoch": 98243,
        "meta_bstar": 0.0012704,
        "meta_mean_motion_dot": 3.332e-05,
        "meta_mean_motion_ddot": 0,
        "tle_line1": "1 29784U 99025CA  25338.59842887  .00003332  00000+0  12704-2 0  9993",
        "tle_line2": "2 29784  98.9448 257.1641 0059870 321.3417 160.3684 14.30544949982437"
      },
      "geometry": {
        "type": "Point",
        "coordinates": [
          -101.20210027175396,
          -6.400395000124537
        ]
      }
    },
    {
      "type": "Feature",
      "properties": {
        "norad_id": 29786,
        "name": "FENGYUN 1C DEB",
        "group": "fengyun-1c-debris",
        "lat": 24.829437625932307,
        "lon": -179.2705667455806,
        "alt_km": 916.8115065861602,
        "timestamp": "2025-12-05T04:52:15.564143+00:00",
        "meta_object_name": "FENGYUN 1C DEB",
        "meta_object_id": "1999-025CC",
        "meta_epoch": "2025-12-04T13:24:58.394016",
        "meta_mean_motion": 14.09076555,
        "meta_eccentricity": 0.0077257,
        "meta_inclination": 98.7361,
        "meta_ra_of_asc_node": 356.0254,
        "meta_arg_of_pericenter": 326.4149,
        "meta_mean_anomaly": 163.7766,
        "meta_ephemeris_type": 0,
        "meta_classification_type": "U",
        "meta_norad_cat_id": 29786,
        "meta_element_set_no": 999,
        "meta_rev_at_epoch": 97045,
        "meta_bstar": 0.00030647,
        "meta_mean_motion_dot": 5.03e-06,
        "meta_mean_motion_ddot": 0,
        "tle_line1": "1 29786U 99025CC  25338.55900919  .00000503  00000+0  30647-3 0  9996",
        "tle_line2": "2 29786  98.7361 356.0254 0077257 326.4149 163.7766 14.09076555970453"
      },
      "geometry": {
        "type": "Point",
        "coordinates": [
          -179.2705667455806,
          24.829437625932307
        ]
      }
    },
    {
      "type": "Feature",
      "properties": {
        "norad_id": 29788,
        "name": "FENGYUN 1C DEB",
        "group": "fengyun-1c-debris",
        "lat": -7.076328747713036,
        "lon": 51.909490204573636,
        "alt_km": 833.8001429877559,
        "timestamp": "2025-12-05T04:52:15.564152+00:00",
        "meta_object_name": "FENGYUN 1C DEB",
        "meta_object_id": "1999-025CE",
        "meta_epoch": "2025-12-04T16:09:08.026848",
        "meta_mean_motion": 14.2587615,
        "meta_eccentricity": 0.0042836,
        "meta_inclination": 98.7854,
        "meta_ra_of_asc_node": 50.2784,
        "meta_arg_of_pericenter": 211.6178,
        "meta_mean_anomaly": 302.2644,
        "meta_ephemeris_type": 0,
        "meta_classification_type": "U",
        "meta_norad_cat_id": 29788,
        "meta_element_set_no": 999,
        "meta_rev_at_epoch": 97240,
        "meta_bstar": 0.0039238,
        "meta_mean_motion_dot": 9.398e-05,
        "meta_mean_motion_ddot": 0,
        "tle_line1": "1 29788U 99025CE  25338.67300957  .00009398  00000+0  39238-2 0  9992",
        "tle_line2": "2 29788  98.7854  50.2784 0042836 211.6178 302.2644 14.25876150972404"
      },
      "geometry": {
        "type": "Point",
        "coordinates": [
          51.909490204573636,
          -7.076328747713036
        ]
      }
    },
    {
      "type": "Feature",
      "properties": {
        "norad_id": 29789,
        "name": "FENGYUN 1C DEB",
        "group": "fengyun-1c-debris",
        "lat": -76.37826143537224,
        "lon": -154.2583868768998,
        "alt_km": 852.3932471303806,
        "timestamp": "2025-12-05T04:52:15.564162+00:00",
        "meta_object_name": "FENGYUN 1C DEB",
        "meta_object_id": "1999-025CF",
        "meta_epoch": "2025-12-02T18:48:53.557344",
        "meta_mean_motion": 13.54203296,
        "meta_eccentricity": 0.02983938,
        "meta_inclination": 99.4521,
        "meta_ra_of_asc_node": 159.9992,
        "meta_arg_of_pericenter": 303.918,
        "meta_mean_anomaly": 70.0924,
        "meta_ephemeris_type": 0,
        "meta_classification_type": "U",
        "meta_norad_cat_id": 29789,
        "meta_element_set_no": 999,
        "meta_rev_at_epoch": 92853,
        "meta_bstar": 0.001621275,
        "meta_mean_motion_dot": 1.419e-05,
        "meta_mean_motion_ddot": 0,
        "tle_line1": "1 29789U 99025CF  25336.78395321  .00001419  00000+0  16213-2 0  9996",
        "tle_line2": "2 29789  99.4521 159.9992 0298393 303.9180  70.0924 13.54203296928533"
      },
      "geometry": {
        "type": "Point",
        "coordinates": [
          -154.2583868768998,
          -76.37826143537224
        ]
      }
    }
  ]
}